COSMOS 1933             
1 18958U 88020A   22232.08341500  .00000793  00000+0  54189-4 0  9990
2 18958  82.5269  78.8407 0010425 336.1822  23.8921 15.04788575854378
SL-3 R/B                
1 19046U 88032B   22232.53284266  .00001838  00000+0  13570-3 0  9996
2 19046  97.3958 228.6653 0036836  23.0823 337.2048 15.03908494856244
SL-16 R/B               
1 19120U 88039B   22232.59003687 -.00000168  00000+0 -56922-4 0  9994
2 19120  71.0142 290.4272 0021663 175.4484 184.6842 14.19255261774329
COSMOS 1953             
1 19210U 88050A   22232.59522461  .00001563  00000+0  10087-3 0  9992
2 19210  82.5186 358.3803 0010090 279.0208  80.9879 15.07575990841229
SL-8 R/B                
1 19257U 88053B   22232.56548983  .00000096  00000+0  40444-4 0  9991
2 19257  74.0505 340.6727 0019495 124.3548  11.6848 14.37620925790116
COSMOS 1975             
1 19573U 88093A   22232.28601256  .00001475  00000+0  97896-4 0  9993
2 19573  82.5195 314.6773 0012564 343.7486  16.3336 15.06467071822899
SL-14 R/B               
1 19574U 88093B   22232.58937690  .00000285  00000+0  31635-4 0  9998
2 19574  82.5342 177.3778 0021754   7.4086 165.6065 14.83535257808598
SL-16 R/B               
1 19650U 88102B   22232.47297475  .00000171  00000+0  11120-3 0  9992
2 19650  71.0017   0.2069 0014759 194.3741 165.6965 14.15836238743262
INTERCOSMOS 24          
1 20261U 89080A   22232.47253568  .00000580  00000+0  16456-3 0  9994
2 20261  82.5994 226.2834 1202395  55.3859 315.4789 12.56443936503697
SL-14 R/B               
1 20262U 89080C   22232.57921241  .00000131  00000+0  39800-4 0  9997
2 20262  82.5928 285.2109 1235131 266.3454  79.5927 12.49090177498124
DELTA 2 R/B(1)          
1 20303U 89085B   22230.90239018  .00019850  00000+0  48884-3 0  9996
2 20303  35.6386  50.4918 0077026  53.6183 307.1623 15.36638315789520
DELTA 1 R/B             
1 20323U 89089B   22232.25231115  .00000146  00000+0  47008-4 0  9998
2 20323  97.0765 263.6877 0069994 253.1981 106.1530 14.48550194707776
ARIANE 40 R/B           
1 20443U 90005H   22232.42209607  .00000143  00000+0  61346-4 0  9999
2 20443  98.4794 299.4078 0011394 130.8959 229.3217 14.38258201706236
DELTA 2 R/B(1)          
1 20453U 90008B   22232.48552969  .00003490  00000+0  18370-3 0  9997
2 20453  35.6214 243.0087 0262811 109.2169 253.7177 14.90355263729467
COSMOS 2058             
1 20465U 90010A   22232.49443456  .00000982  00000+0  78624-4 0  9996
2 20465  82.4867 228.8682 0016387  47.6630 312.5978 14.99022832747228
SL-14 R/B               
1 20466U 90010B   22232.58231847  .00000234  00000+0  26751-4 0  9990
2 20466  82.5018  43.5141 0019046 246.8819 113.0388 14.81574425736304
SL-14 R/B               
1 20511U 90018B   22232.40974240  .00000250  00000+0  29738-4 0  9997
2 20511  82.5258 353.6112 0018284  37.9934  22.9171 14.80227971730553
HST                     
1 20580U 90037B   22232.39457164  .00002071  00000+0  11086-3 0  9992
2 20580  28.4699 105.0504 0002576   8.1321 164.3030 15.10778078575890
SL-16 R/B               
1 20625U 90046B   22232.49464925  .00000264  00000+0  16188-3 0  9996
2 20625  71.0001 141.4981 0012425 119.7627 240.4733 14.14701511664915
COSMOS 2084             
1 20663U 90055A   22232.47372085  .00001064  00000+0  10547-3 0  9993
2 20663  62.7929  35.6036 0122877  56.4874 304.7888 14.93054021741850
SL-6 R/B(2)             
1 20666U 90055D   22232.58599913  .00000811  00000+0  82431-4 0  9990
2 20666  62.7843 309.5602 0131625  78.7565 282.8290 14.93386171743832
SL-8 R/B                
1 20775U 90078B   22232.57697147  .00004150  00000+0  19551-3 0  9995
2 20775  82.9239 289.5179 0547330 246.4039 107.8787 14.40549626619754
SL-8 R/B                
1 21088U 91006B   22232.55565416  .00000141  00000+0  12642-3 0  9996
2 21088  82.9401  54.7904 0023875  69.1927 320.9653 13.77206727585517
OKEAN-3                 
1 21397U 91039A   22232.46902670  .00001106  00000+0  10143-3 0  9998
2 21397  82.5233 141.6302 0018594  35.2027 325.0418 14.93832092670737
COSMOS 2151             
1 21422U 91042A   22232.54308259  .00000683  00000+0  63499-4 0  9995
2 21422  82.4975 246.6765 0015698  98.6605 261.6394 14.92763292669240
SL-14 R/B               
1 21423U 91042B   22232.41023215  .00000268  00000+0  32301-4 0  9995
2 21423  82.4965 354.7862 0017718 173.1299 187.0160 14.79972290661083
ERS-1                   
1 21574U 91050A   22232.43693381  .00000110  00000+0  51175-4 0  9996
2 21574  98.7026 202.0632 0034126  88.3245 272.1850 14.37923797629211
ARIANE 40 R/B           
1 21610U 91050F   22232.41827518  .00000137  00000+0  56034-4 0  9994
2 21610  98.3772 300.6723 0004010  50.6325 309.5219 14.41093762632046
INTERCOSMOS 25          
1 21819U 91086A   22232.42839192  .00000891  00000+0  17500-3 0  9997
2 21819  82.5958  10.2923 1513641  19.4984 345.8068 12.05914058339940
SL-8 R/B                
1 21876U 92008B   22232.33411187  .00000066  00000+0  52310-4 0  9998
2 21876  82.9296 152.3541 0035205 155.2331 322.5887 13.75714266531026
SL-8 R/B                
1 21938U 92020B   22232.48552595  .00000153  00000+0  14370-3 0  9996
2 21938  82.9298  37.0435 0028301 320.1919  93.5119 13.75307190522816
COSMOS 2219             
1 22219U 92076A   22232.34854242  .00000009  00000+0  29544-4 0  9999
2 22219  71.0571 209.2174 0017337  16.1528 344.0143 14.13693408535009
SL-16 R/B               
1 22220U 92076B   22232.61164468 -.00000160  00000+0 -56122-4 0  9997
2 22220  71.0006  39.7934 0015124 271.8540 156.0428 14.16503214538132
COSMOS 2221             
1 22236U 92080A   22232.59574011  .00000694  00000+0  71801-4 0  9996
2 22236  82.5051  73.0301 0015897 200.2746 159.7843 14.88578586587370
SL-16 R/B               
1 22285U 92093B   22232.35384488 -.00000252  00000+0 -10537-3 0  9995
2 22285  71.0198 206.9312 0002669 155.5053 204.6197 14.15091998529605
COSMOS 2228             
1 22286U 92094A   22232.49360854  .00000794  00000+0  81877-4 0  9998
2 22286  82.5199  30.2980 0019907 326.2724  33.7226 14.88841850582555
SL-16 R/B               
1 22566U 93016B   22232.56868897  .00000109  00000+0  80923-4 0  9993
2 22566  71.0067  58.7941 0009139 147.3710 212.7979 14.15005104518667
COSMOS 2242             
1 22626U 93024A   22232.55340842  .00000709  00000+0  73180-4 0  9996
2 22626  82.5192  58.7148 0017816 327.0219  32.9886 14.88666810586943
SL-16 R/B               
1 22803U 93059B   22232.37673533  .00000299  00000+0  17290-3 0  9990
2 22803  70.9880 226.0856 0016410  19.6778 340.4975 14.16872318495751
ARIANE 40 R/B           
1 22830U 93061H   22232.19259613  .00000081  00000+0  47034-4 0  9991
2 22830  98.6592 294.8448 0011600 147.6660 212.5236 14.31576713508386
COSMOS 2278             
1 23087U 94023A   22232.56810547  .00000155  00000+0  10663-3 0  9994
2 23087  71.0546   7.7419 0010084 218.1246 141.9163 14.13871920461439
SL-16 R/B               
1 23088U 94023B   22232.44967170  .00000211  00000+0  13447-3 0  9993
2 23088  70.9977 274.5380 0001548 137.2971 222.8272 14.14714391462607
SL-16 R/B               
1 23343U 94074B   22232.13427840  .00000210  00000+0  36914-4 0  9998
2 23343  97.8879 283.6783 0008228 107.7007 306.2865 14.77072415495561
SL-16 R/B               
1 23405U 94077B   22232.36808550  .00000101  00000+0  76445-4 0  9998
2 23405  70.9822 201.0977 0004177 306.1398  53.9337 14.15266118432665
ERS-2                   
1 23560U 95021A   22232.39043170  .00006004  00000+0  22727-3 0  9993
2 23560  98.4986 146.6338 0002838  10.1357 349.9936 15.27400044463071
ARIANE 40+ R/B          
1 23561U 95021B   22232.13558481  .00000136  00000+0  59671-4 0  9991
2 23561  98.6185 289.6814 0007935  62.6685 351.5599 14.38177583432644
SL-16 R/B               
1 23705U 95058B   22232.59038878  .00000190  00000+0  12213-3 0  9994
2 23705  71.0241  22.7080 0014496 292.9588  67.0005 14.15181673384325
SL-16 R/B               
1 24298U 96051B   22232.54870295  .00000094  00000+0  77534-4 0  9999
2 24298  70.8213  35.5519 0019207 252.7160 107.1858 14.12425733338486
ORBVIEW 2 (SEASTAR)     
1 24883U 97037A   22232.36167050  .00000188  00000+0  83778-4 0  9993
2 24883  98.6878 355.9592 0001190 291.5108  68.5949 14.33769202322463
SL-16 R/B               
1 25400U 98043G   22232.57991526  .00000008  00000+0  21972-4 0  9992
2 25400  98.6733 168.0063 0009896 176.1418 183.9839 14.25524017254152
SL-16 R/B               
1 25407U 98045B   22232.59291783 -.00000077  00000+0 -14626-4 0  9997
2 25407  71.0127  28.5485 0008598 217.5088 142.5436 14.15870095243487
ISS (ZARYA)             
1 25544U 98067A   22232.54439464  .00006368  00000+0  11843-3 0  9992
2 25544  51.6446  17.7526 0005422 139.4296 315.3228 15.50250744355160
CZ-4B R/B               
1 25732U 99025C   22232.60700720  .00000016  00000+0  29206-4 0  9996
2 25732  98.8499 273.7435 0038413 103.8830  10.5499 14.17740295204342
OKEAN-O                 
1 25860U 99039A   22232.54380171  .00000254  00000+0  43457-4 0  9998
2 25860  98.1346 272.9448 0001239 114.7193 245.4146 14.76997007242713
SL-16 R/B               
1 25861U 99039B   22232.55145694  .00000249  00000+0  41186-4 0  9990
2 25861  98.1763 260.6033 0016689 124.1788 236.1007 14.78872348244976
DELTA 2 R/B             
1 25876U 99041E   22230.91315566  .00001422  00000+0  27978-3 0  9990
2 25876  51.7639  60.7961 0530052 136.1140 228.3185 14.05157259180008
HELIOS 1B               
1 25977U 99064A   22232.50994762  .00000287  00000+0  42622-4 0  9997
2 25977  98.3202  69.3025 0000841  24.9029 335.2224 14.82837585492771
TERRA                   
1 25994U 99068A   22232.55059789  .00000200  00000+0  54223-4 0  9991
2 25994  98.1332 302.9893 0001600  87.9565  18.9518 14.57139485205835
SL-16 R/B               
1 26070U 00006B   22232.55492201 -.00000278  00000+0 -11771-3 0  9998
2 26070  71.0027 304.5083 0017035 348.0279  12.0436 14.15494029164989
